IRIDIUM 57              
1 25273U 98019B   24297.55838603  .00001016  00000+0  34652-3 0  9998
2 25273  86.3956 244.3145 0002380  86.6788 273.4680 14.35503240390837
IRIDIUM 63              
1 25286U 98021B   24297.60039670  .00000917  00000+0  30834-3 0  9995
2 25286  86.4046 181.2847 0002073  76.8912 283.2516 14.36114627389887
IRIDIUM 69              
1 25319U 98026A   24297.63680041  .00001372  00000+0  42597-3 0  9999
2 25319  86.4044 195.2486 0004593  81.9562 278.2158 14.40425128389009
IRIDIUM 71              
1 25320U 98026B   24297.47100324  .00001000  00000+0  30720-3 0  9997
2 25320  86.4044 190.0606 0003659 114.1868 245.9714 14.40690431389503
IRIDIUM 73              
1 25344U 98032C   24297.59116674  .00001201  00000+0  29854-3 0  9997
2 25344  86.4425 147.2659 0002767  82.5477 277.6042 14.51025001396249
IRIDIUM 82              
1 25467U 98051A   24297.30387457  .00024603  00000+0  10489-2 0  9996
2 25467  86.3755 224.6922 0117759 106.2503 255.1731 15.16617017387865
